GOES 16                 
1 41866U 16071A   24225.45336988 -.00000237  00000+0  00000+0 0  9992
2 41866   0.0754 265.0344 0000437 214.7520 289.6079  1.00272573 28347
FENGYUN 4A              
1 41882U 16077A   24225.48550036 -.00000186  00000+0  00000+0 0  9994
2 41882   0.5948  86.0944 0008412 342.0979 154.2559  1.00276801 28175
CYGFM05                 
1 41884U 16078A   24225.28377792  .00020873  00000+0  73394-3 0  9995
2 41884  34.9609 305.5928 0011482 348.5176  11.5277 15.28400320424660
CYGFM04                 
1 41885U 16078B   24225.23781887  .00021751  00000+0  74386-3 0  9993
2 41885  34.9375 289.3830 0008846  12.8742 347.2198 15.29321342424750
CYGFM02                 
1 41886U 16078C   24225.51150477  .00034572  00000+0  11654-2 0  9993
2 41886  34.9463 289.7732 0011547   3.2799 356.7991 15.29685457424882
CYGFM01                 
1 41887U 16078D   24225.60009740  .00033497  00000+0  11816-2 0  9995
2 41887  34.9503 307.5076 0010818 339.5021  20.5259 15.28225882424649
CYGFM08                 
1 41888U 16078E   24225.58324070  .00034525  00000+0  11822-2 0  9999
2 41888  34.9491 295.2672 0011968   5.1401 354.9436 15.29173589424824
CYGFM07                 
1 41890U 16078G   24225.48322624  .00020947  00000+0  71280-3 0  9992
2 41890  34.9527 287.1888 0008281  15.8315 344.2658 15.29495299424803
CYGFM03                 
1 41891U 16078H   24225.26031463  .00020605  00000+0  70350-3 0  9995
2 41891  34.9470 289.8554 0009505 354.6871   5.3743 15.29378117424754
FENGYUN 3D              
1 43010U 17072A   24225.55982578  .00000699  00000+0  35388-3 0  9992
2 43010  98.9142 180.5562 0001853 137.5830 222.5489 14.19390817349410
NOAA 20 (JPSS-1)        
1 43013U 17073A   24225.58848356  .00000528  00000+0  27098-3 0  9994
2 43013  98.7068 162.5672 0002354  74.1598 285.9838 14.19559247348902
GOES 17                 
1 43226U 18022A   24225.24841024 -.00000079  00000+0  00000+0 0  9995
2 43226   0.0092 120.4865 0001596  56.6276 128.7862  1.00271907 23667
FENGYUN 2H              
1 43491U 18050A   24225.55567588 -.00000119  00000+0  00000+0 0  9999
2 43491   1.2849  86.8892 0001157  68.8768  84.9615  1.00276620 22680
METOP-C                 
1 43689U 18087A   24225.59318109  .00000776  00000+0  37468-3 0  9995
2 43689  98.7198 284.1999 0000711 303.7456  56.3654 14.21489314299133
GEO-KOMPSAT-2A          
1 43823U 18100A   24224.99247566 -.00000333  00000+0  00000+0 0  9990
2 43823   0.0159  94.9402 0002535  15.8127 335.7224  1.00273322 20866
METEOR-M2 2             
1 44387U 19038A   24225.57656320  .00001179  00000+0  53376-3 0  9990
2 44387  98.8314 195.0347 0001971 124.7808 235.3556 14.23924698265413
ARKTIKA-M 1             
1 47719U 21016A   24225.08172162  .00000104  00000+0  00000+0 0  9993
2 47719  63.1341 145.3331 6961325 268.6034  17.8322  2.00600432 25264
FENGYUN 3E              
1 49008U 21062A   24225.58557552  .00000248  00000+0  13799-3 0  9994
2 49008  98.7346 226.1122 0001029 181.9074 178.2098 14.19772397160998
GOES 18                 
1 51850U 22021A   24225.15497281  .00000108  00000+0  00000+0 0  9995
2 51850   0.0033 145.0283 0000400 346.8848 107.9665  1.00273620   437
NOAA 21 (JPSS-2)        
1 54234U 22150A   24225.55388409  .00000619  00000+0  31459-3 0  9995
2 54234  98.7521 162.7899 0001267  48.5108 311.6177 14.19546914 90971
METEOSAT-12 (MTG-I1)    
1 54743U 22170C   24225.32516634  .00000004  00000+0  00000+0 0  9992
2 54743   0.5847  47.2949 0002041  76.7768 313.8538  1.00275270  6227
TIANMU-1 03             
1 55973U 23039A   24225.62286610  .00035452  00000+0  14673-2 0  9993
2 55973  97.4744  15.9554 0004442 354.1001   6.0183 15.23846128 77443
TIANMU-1 04             
1 55974U 23039B   24225.60304048  .00034547  00000+0  14254-2 0  9997
2 55974  97.4664  15.4459 0005428 347.9371  12.1736 15.23953082 77438
TIANMU-1 05             
1 55975U 23039C   24225.58995940  .00034391  00000+0  14238-2 0  9991
2 55975  97.4712  15.7887 0004454  14.5062 345.6302 15.23843587 77423
TIANMU-1 06             
1 55976U 23039D   24225.63257764  .00035897  00000+0  14759-2 0  9993
2 55976  97.4727  15.9742 0004933  10.7119 349.4222 15.24065251 77434
METEOR-M2 3             
1 57166U 23091A   24225.61181423  .00000238  00000+0  12300-3 0  9992
2 57166  98.7089 279.7687 0003429 342.5517  17.5543 14.23912546 58655
TIANMU-1 07             
1 57399U 23101A   24225.60382200  .00024130  00000+0  11843-2 0  9994
2 57399  97.3589 281.1918 0004630  12.5651 347.5698 15.18073484 58982
TIANMU-1 08             
1 57400U 23101B   24225.57279162  .00024081  00000+0  11813-2 0  9997
2 57400  97.3578 281.0274 0006927  10.6220 349.5160 15.18080208 58976
TIANMU-1 09             
1 57401U 23101C   24225.62188531  .00025068  00000+0  12289-2 0  9997
2 57401  97.3535 280.8840 0007168   5.9457 354.1861 15.18093820 58988
TIANMU-1 10             
1 57402U 23101D   24225.58875429  .00024727  00000+0  12125-2 0  9992
2 57402  97.3612 281.1847 0009210   1.0886 359.0367 15.18073041 58976
FENGYUN 3F              
1 57490U 23111A   24225.60745702  .00000556  00000+0  28318-3 0  9999
2 57490  98.7664 294.2111 0000359  67.1518 292.9696 14.19853835 53279
ARKTIKA-M 2             
1 58584U 23198A   24224.31540071  .00000143  00000+0  00000+0 0  9994
2 58584  63.2527 229.1373 6962495 269.7810  17.3356  2.00602378  4780
TIANMU-1 11             
1 58645U 23205A   24225.57311458  .00021256  00000+0  11086-2 0  9992
2 58645  97.4019 249.2292 0010845 198.8415 161.2418 15.15924835 35053
TIANMU-1 12             
1 58646U 23205B   24225.58680227  .00022288  00000+0  11601-2 0  9996
2 58646  97.4007 249.1670 0009679 188.8421 171.2642 15.15995450 35049
TIANMU-1 13             
1 58647U 23205C   24225.55589928  .00023133  00000+0  12065-2 0  9995
2 58647  97.4034 249.1474 0010062 174.1365 185.9987 15.15913523 35039
TIANMU-1 14             
1 58648U 23205D   24225.47368899  .00022441  00000+0  11704-2 0  9999
2 58648  97.3963 248.8772 0010664 177.9213 182.2066 15.15914679 35028
TIANMU-1 19             
1 58660U 23208A   24225.61028824  .00029525  00000+0  15293-2 0  9990
2 58660  97.4138 336.6372 0009570 163.1957 196.9594 15.16108686 34712
TIANMU-1 20             
1 58661U 23208B   24225.58457107  .00028441  00000+0  14412-2 0  9995
2 58661  97.4070 336.5991 0010141 172.6024 187.5361 15.16884148 34723
TIANMU-1 21             
1 58662U 23208C   24225.60904630  .00031255  00000+0  15394-2 0  9994
2 58662  97.4105 336.9885 0009814 172.8632 187.2744 15.17862821 34740
TIANMU-1 22             
1 58663U 23208D   24225.56217501  .00027439  00000+0  14260-2 0  9994
2 58663  97.4126 336.6520 0005349 177.4392 182.6870 15.16034255 34717
TIANMU-1 15             
1 58700U 24004A   24225.60472222  .00023054  00000+0  12025-2 0  9995
2 58700  97.4642  45.6995 0009149 210.6445 149.4255 15.15919396 33316
TIANMU-1 16             
1 58701U 24004B   24225.58627292  .00024751  00000+0  12891-2 0  9998
2 58701  97.4571  45.5104 0009027 217.1313 142.9296 15.15958177 33313
TIANMU-1 17             
1 58702U 24004C   24225.57216245  .00023817  00000+0  12422-2 0  9992
2 58702  97.4616  45.6556 0006984 208.6095 151.4755 15.15930498 33307
TIANMU-1 18             
1 58703U 24004D   24225.55457866  .00022278  00000+0  11622-2 0  9998
2 58703  97.4631  45.7236 0006457 196.2456 163.8571 15.15940054 33301
INSAT-3DS               
1 58990U 24033A   24225.50813358 -.00000145  00000+0  00000+0 0  9990
2 58990   0.0480 270.2889 0001869 224.8367  91.3159  1.00270641 40314
METEOR-M2 4             
1 59051U 24039A   24225.55664926  .00000327  00000+0  16686-3 0  9997
2 59051  98.6018 186.0740 0006458 330.5444  29.5369 14.22248996 23507
GOES 19                 
1 60133U 24119A   24225.45699115 -.00000171  00000+0  00000+0 0  9993
2 60133   0.0675 250.0902 0003362 200.5275 305.8231  1.00272965   202
2024-130A               
1 60249U 24130A   24225.57073919  .00311946  24005-4  16831-2 0  9997
2 60249  97.4742 295.3194 0295021 104.1780 259.2429 15.38201694  3745
2024-130B               
1 60250U 24130B   24225.60111850  .01238853  22381-5  14406-2 0  9998
2 60250  97.4142 296.9063 0117147  80.4202 281.0287 15.96326050  3866
STARLINK-32138          
1 60255U 24131A   24225.58335648 -.01751697  00000+0 -14515-1 0  9990
2 60255  53.1565 205.9747 0000659  78.8505 286.3443 15.72676405  3682
STARLINK-32212          
1 60256U 24131B   24225.58335648 -.01752443  00000+0 -14524-1 0  9991
2 60256  53.1564 205.9702 0000689  83.9200 283.2748 15.72672973  3753
STARLINK-32166          
1 60257U 24131C   24225.58335648 -.01751132  00000+0 -14516-1 0  9997
2 60257  53.1562 205.9662 0000421  92.2178 276.9761 15.72668678  3748
STARLINK-32200          
1 60258U 24131D   24225.58335648 -.01754513  00000+0 -14547-1 0  9998
2 60258  53.1563 205.9621 0000742 108.4770 262.7161 15.72666938  3743
STARLINK-32207          
1 60259U 24131E   24225.58335648 -.01753921  00000+0 -14542-1 0  9996
2 60259  53.1564 205.9582 0001053  89.6636 283.5289 15.72662669  3747
STARLINK-32125          
1 60260U 24131F   24225.58335648 -.01758626  00000+0 -14588-1 0  9995
2 60260  53.1564 205.9539 0000836 102.4288 272.7625 15.72662597  3740
STARLINK-32160          
1 60261U 24131G   24225.58335648 -.01757540  00000+0 -14580-1 0  9992
2 60261  53.1562 205.9497 0000913 108.9434 268.2474 15.72658157  3796
STARLINK-32163          
1 60262U 24131H   24225.58335648 -.01754036  00000+0 -14554-1 0  9991
2 60262  53.1563 205.9411 0000808 119.8695 261.3216 15.72647890  3742
STARLINK-32148          
1 60263U 24131J   24225.58335648 -.01751539  00000+0 -14529-1 0  9999
2 60263  53.1564 205.9460 0000840 120.7896 258.4027 15.72649761  3799
